{"type": "FeatureCollection", "features": [{"type": "Feature", "properties": {"norad_id": 26766, "name": "INTELSAT 10 (IS-10)", "group": "intelsat", "lat": 7.9721947935744915, "lon": 173.82469487518924, "alt_km": 36135.19543176436, "timestamp": "2025-12-11T20:41:14.754524+00:00", "meta": {"OBJECT_NAME": "INTELSAT 10 (IS-10)", "OBJECT_ID": "2001-019A", "EPOCH": "2025-12-11T14:11:41.135712", "MEAN_MOTION": 0.99078808, "ECCENTRICITY": 0.00077853, "INCLINATION": 8.6274, "RA_OF_ASC_NODE": 61.1692, "ARG_OF_PERICENTER": 224.4537, "MEAN_ANOMALY": 151.554, "EPHEMERIS_TYPE": 0, "CLASSIFICATION_TYPE": "U", "NORAD_CAT_ID": 26766, "ELEMENT_SET_NO": 999, "REV_AT_EPOCH": 4372, "BSTAR": 0, "MEAN_MOTION_DOT": -2.86e-06, "MEAN_MOTION_DDOT": 0}, "tle": {"line1": "1 26766U 01019A   25345.59144833 -.00000286  00000+0  00000+0 0  9999", "line2": "2 26766   8.6274  61.1692 0007785 224.4537 151.5540  0.99078808 43721"}}, "geometry": {"type": "Point", "coordinates": [173.82469487518924, 7.9721947935744915]}}, {"type": "Feature", "properties": {"norad_id": 26900, "name": "INTELSAT 902 (IS-902)", "group": "intelsat", "lat": -5.6384522708199, "lon": -19.064904773393057, "alt_km": 35788.764851001935, "timestamp": "2025-12-11T20:41:14.754547+00:00", "meta": {"OBJECT_NAME": "INTELSAT 902 (IS-902)", "OBJECT_ID": "2001-039A", "EPOCH": "2025-12-01T16:59:59.311968", "MEAN_MOTION": 1.00270327, "ECCENTRICITY": 0.00043097, "INCLINATION": 5.6187, "RA_OF_ASC_NODE": 74.2002, "ARG_OF_PERICENTER": 175.119, "MEAN_ANOMALY": 26.3816, "EPHEMERIS_TYPE": 0, "CLASSIFICATION_TYPE": "U", "NORAD_CAT_ID": 26900, "ELEMENT_SET_NO": 999, "REV_AT_EPOCH": 8871, "BSTAR": 0, "MEAN_MOTION_DOT": -2.63e-06, "MEAN_MOTION_DDOT": 0}, "tle": {"line1": "1 26900U 01039A   25335.70832537 -.00000263  00000+0  00000+0 0  9993", "line2": "2 26900   5.6187  74.2002 0004309 175.1190  26.3816  1.00270327 88713"}}, "geometry": {"type": "Point", "coordinates": [-19.064904773393057, -5.6384522708199]}}, {"type": "Feature", "properties": {"norad_id": 27380, "name": "INTELSAT 904 (IS-904)", "group": "intelsat", "lat": -6.126548614316692, "lon": -0.25345475596484035, "alt_km": 35783.88511575899, "timestamp": "2025-12-11T20:41:14.754563+00:00", "meta": {"OBJECT_NAME": "INTELSAT 904 (IS-904)", "OBJECT_ID": "2002-007A", "EPOCH": "2025-12-11T11:39:03.254112", "MEAN_MOTION": 1.00272834, "ECCENTRICITY": 0.00015323, "INCLINATION": 6.4519, "RA_OF_ASC_NODE": 71.4464, "ARG_OF_PERICENTER": 223.4619, "MEAN_ANOMALY": 288.7916, "EPHEMERIS_TYPE": 0, "CLASSIFICATION_TYPE": "U", "NORAD_CAT_ID": 27380, "ELEMENT_SET_NO": 999, "REV_AT_EPOCH": 4988, "BSTAR": 0, "MEAN_MOTION_DOT": -2.2e-06, "MEAN_MOTION_DDOT": 0}, "tle": {"line1": "1 27380U 02007A   25345.48545433 -.00000220  00000+0  00000+0 0  9997", "line2": "2 27380   6.4519  71.4464 0001532 223.4619 288.7916  1.00272834 49888"}}, "geometry": {"type": "Point", "coordinates": [-0.25345475596484035, -6.126548614316692]}}, {"type": "Feature", "properties": {"norad_id": 27426, "name": "DIRECTV 5 (TEMPO 1)", "group": "intelsat", "lat": -1.759323274990042, "lon": -79.05110004281438, "alt_km": 35771.62483588385, "timestamp": "2025-12-11T20:41:14.754576+00:00", "meta": {"OBJECT_NAME": "DIRECTV 5 (TEMPO 1)", "OBJECT_ID": "2002-023A", "EPOCH": "2025-12-11T09:33:43.623648", "MEAN_MOTION": 1.00271797, "ECCENTRICITY": 0.00035158, "INCLINATION": 4.3991, "RA_OF_ASC_NODE": 77.668, "ARG_OF_PERICENTER": 194.2691, "MEAN_ANOMALY": 201.729, "EPHEMERIS_TYPE": 0, "CLASSIFICATION_TYPE": "U", "NORAD_CAT_ID": 27426, "ELEMENT_SET_NO": 999, "REV_AT_EPOCH": 8624, "BSTAR": 0, "MEAN_MOTION_DOT": -5.1e-07, "MEAN_MOTION_DDOT": 0}, "tle": {"line1": "1 27426U 02023A   25345.39842157 -.00000051  00000+0  00000+0 0  9991", "line2": "2 27426   4.3991  77.6680 0003515 194.2691 201.7290  1.00271797 86244"}}, "geometry": {"type": "Point", "coordinates": [-79.05110004281438, -1.759323274990042]}}, {"type": "Feature", "properties": {"norad_id": 27438, "name": "INTELSAT 905 (IS-905)", "group": "intelsat", "lat": -0.22100635019700032, "lon": -106.08812472886937, "alt_km": 35774.50210082173, "timestamp": "2025-12-11T20:41:14.754589+00:00", "meta": {"OBJECT_NAME": "INTELSAT 905 (IS-905)", "OBJECT_ID": "2002-027A", "EPOCH": "2025-12-11T12:11:37.320576", "MEAN_MOTION": 1.00272852, "ECCENTRICITY": 0.00027503, "INCLINATION": 6.283, "RA_OF_ASC_NODE": 72.0704, "ARG_OF_PERICENTER": 196.0234, "MEAN_ANOMALY": 218.0777, "EPHEMERIS_TYPE": 0, "CLASSIFICATION_TYPE": "U", "NORAD_CAT_ID": 27438, "ELEMENT_SET_NO": 999, "REV_AT_EPOCH": 4948, "BSTAR": 0, "MEAN_MOTION_DOT": 1e-06, "MEAN_MOTION_DDOT": 0}, "tle": {"line1": "1 27438U 02027A   25345.50807084  .00000100  00000+0  00000+0 0  9995", "line2": "2 27438   6.2830  72.0704 0002750 196.0234 218.0777  1.00272852 49488"}}, "geometry": {"type": "Point", "coordinates": [-106.08812472886937, -0.22100635019700032]}}, {"type": "Feature", "properties": {"norad_id": 27445, "name": "GALAXY 3C (G-3C)", "group": "intelsat", "lat": -1.9195684663877204, "lon": -63.76852446069839, "alt_km": 35789.00658480931, "timestamp": "2025-12-11T20:41:14.754601+00:00", "meta": {"OBJECT_NAME": "GALAXY 3C (G-3C)", "OBJECT_ID": "2002-030A", "EPOCH": "2025-12-11T13:03:40.150944", "MEAN_MOTION": 1.00271539, "ECCENTRICITY": 0.00011176, "INCLINATION": 3.2614, "RA_OF_ASC_NODE": 80.5196, "ARG_OF_PERICENTER": 92.2293, "MEAN_ANOMALY": 8.809, "EPHEMERIS_TYPE": 0, "CLASSIFICATION_TYPE": "U", "NORAD_CAT_ID": 27445, "ELEMENT_SET_NO": 999, "REV_AT_EPOCH": 4461, "BSTAR": 0, "MEAN_MOTION_DOT": -1.45e-06, "MEAN_MOTION_DDOT": 0}, "tle": {"line1": "1 27445U 02030A   25345.54421471 -.00000145  00000+0  00000+0 0  9993", "line2": "2 27445   3.2614  80.5196 0001117  92.2293   8.8090  1.00271539 44614"}}, "geometry": {"type": "Point", "coordinates": [-63.76852446069839, -1.9195684663877204]}}, {"type": "Feature", "properties": {"norad_id": 27513, "name": "INTELSAT 906 (IS-906)", "group": "intelsat", "lat": 1.837482587869211, "lon": 95.16717949410805, "alt_km": 35811.71887834035, "timestamp": "2025-12-11T20:41:14.754613+00:00", "meta": {"OBJECT_NAME": "INTELSAT 906 (IS-906)", "OBJECT_ID": "2002-041A", "EPOCH": "2025-12-11T08:40:50.039328", "MEAN_MOTION": 1.00271319, "ECCENTRICITY": 0.00061529, "INCLINATION": 5.3253, "RA_OF_ASC_NODE": 75.2478, "ARG_OF_PERICENTER": 191.7264, "MEAN_ANOMALY": 7.6889, "EPHEMERIS_TYPE": 0, "CLASSIFICATION_TYPE": "U", "NORAD_CAT_ID": 27513, "ELEMENT_SET_NO": 999, "REV_AT_EPOCH": 8514, "BSTAR": 0, "MEAN_MOTION_DOT": 1.9e-07, "MEAN_MOTION_DDOT": 0}, "tle": {"line1": "1 27513U 02041A   25345.36169027  .00000019  00000+0  00000+0 0  9996", "line2": "2 27513   5.3253  75.2478 0006152 191.7264   7.6889  1.00271319 85145"}}, "geometry": {"type": "Point", "coordinates": [95.16717949410805, 1.837482587869211]}}, {"type": "Feature", "properties": {"norad_id": 27954, "name": "GALAXY 13 (HORIZONS-1)", "group": "intelsat", "lat": 0.38110637048006535, "lon": -118.88041102589634, "alt_km": 35777.76195378462, "timestamp": "2025-12-11T20:41:14.754625+00:00", "meta": {"OBJECT_NAME": "GALAXY 13 (HORIZONS-1)", "OBJECT_ID": "2003-044A", "EPOCH": "2025-12-11T12:47:49.167744", "MEAN_MOTION": 1.00271003, "ECCENTRICITY": 0.00020379, "INCLINATION": 0.9324, "RA_OF_ASC_NODE": 86.4856, "ARG_OF_PERICENTER": 165.9898, "MEAN_ANOMALY": 229.9694, "EPHEMERIS_TYPE": 0, "CLASSIFICATION_TYPE": "U", "NORAD_CAT_ID": 27954, "ELEMENT_SET_NO": 999, "REV_AT_EPOCH": 4469, "BSTAR": 0, "MEAN_MOTION_DOT": 1.4e-06, "MEAN_MOTION_DDOT": 0}, "tle": {"line1": "1 27954U 03044A   25345.53320796  .00000140  00000+0  00000+0 0  9995", "line2": "2 27954   0.9324  86.4856 0002037 165.9898 229.9694  1.00271003 44690"}}, "geometry": {"type": "Point", "coordinates": [-118.88041102589634, 0.38110637048006535]}}, {"type": "Feature", "properties": {"norad_id": 28358, "name": "INTELSAT 10-02", "group": "intelsat", "lat": -0.00046798339051433663, "lon": 30.172232907037774, "alt_km": 35786.765505667754, "timestamp": "2025-12-11T20:41:14.754637+00:00", "meta": {"OBJECT_NAME": "INTELSAT 10-02", "OBJECT_ID": "2004-022A", "EPOCH": "2025-12-11T13:30:15.105312", "MEAN_MOTION": 1.00271737, "ECCENTRICITY": 0.00011498, "INCLINATION": 0.0251, "RA_OF_ASC_NODE": 67.6375, "ARG_OF_PERICENTER": 224.6769, "MEAN_ANOMALY": 349.8059, "EPHEMERIS_TYPE": 0, "CLASSIFICATION_TYPE": "U", "NORAD_CAT_ID": 28358, "ELEMENT_SET_NO": 999, "REV_AT_EPOCH": 7867, "BSTAR": 0, "MEAN_MOTION_DOT": -3e-08, "MEAN_MOTION_DDOT": 0}, "tle": {"line1": "1 28358U 04022A   25345.56267483 -.00000003  00000+0  00000+0 0  9996", "line2": "2 28358   0.0251  67.6375 0001149 224.6769 349.8059  1.00271737 78675"}}, "geometry": {"type": "Point", "coordinates": [30.172232907037774, -0.00046798339051433663]}}, {"type": "Feature", "properties": {"norad_id": 28626, "name": "XM-3 (RHYTHM)", "group": "intelsat", "lat": 0.1619072909487282, "lon": 149.62235721625498, "alt_km": 36165.83184631881, "timestamp": "2025-12-11T20:41:14.754649+00:00", "meta": {"OBJECT_NAME": "XM-3 (RHYTHM)", "OBJECT_ID": "2005-008A", "EPOCH": "2025-12-11T14:04:49.293696", "MEAN_MOTION": 0.98952926, "ECCENTRICITY": 0.00014883, "INCLINATION": 0.1719, "RA_OF_ASC_NODE": 81.409, "ARG_OF_PERICENTER": 268.8794, "MEAN_ANOMALY": 61.2624, "EPHEMERIS_TYPE": 0, "CLASSIFICATION_TYPE": "U", "NORAD_CAT_ID": 28626, "ELEMENT_SET_NO": 999, "REV_AT_EPOCH": 4073, "BSTAR": 0, "MEAN_MOTION_DOT": -1.86e-06, "MEAN_MOTION_DDOT": 0}, "tle": {"line1": "1 28626U 05008A   25345.58668164 -.00000186  00000+0  00000+0 0  9994", "line2": "2 28626   0.1719  81.4090 0001488 268.8794  61.2624  0.98952926 40736"}}, "geometry": {"type": "Point", "coordinates": [149.62235721625498, 0.1619072909487282]}}]}